FLOCK 4G-36             
1 62675U 25009BU  26068.70726311  .00013573  00000+0  51122-3 0  9993
2 62675  97.4053 151.0513 0003474 324.2456  35.8550 15.27209548 63701
STARLINK-32936          
1 63147U 25043R   26068.30018603  .00035393  00000+0  12892-2 0  9994
2 63147  43.0003  25.2851 0001507 258.0147 102.0536 15.27586943 57229
